ONEWEB-0346             
1 49212U 21083AC  24085.90252120  .00000128  00000+0  29086-3 0  9990
2 49212  87.9177 137.3621 0002518  98.7321 261.4097 13.18684846122797
ONEWEB-0348             
1 49213U 21083AD  24085.94073030  .00000094  00000+0  19810-3 0  9992
2 49213  87.9139  76.2766 0002542  99.4630 260.6791 13.20774346129466
ONEWEB-0350             
1 49214U 21083AE  24085.84787198  .00000314  00000+0  82446-3 0  9999
2 49214  87.8919 122.1327 0002210 105.5989 254.5384 13.13469759124167
ONEWEB-0351             
1 49215U 21083AF  24085.93442390  .00000124  00000+0  27399-3 0  9997
2 49215  87.9138  76.2807 0001195  62.0863 298.0391 13.20770324129429
ONEWEB-0352             
1 49216U 21083AG  24085.82882280 -.00000133  00000+0 -39814-3 0  9999
2 49216  87.8920 122.1648 0001695  96.5234 263.6088 13.13470046124258
ONEWEB-0354             
1 49217U 21083AH  24085.95967255  .00000176  00000+0  40168-3 0  9999
2 49217  87.9139  76.2576 0001898  99.3196 260.8152 13.20774088129464
ONEWEB-0355             
1 49218U 21083AJ  24085.85897679  .00000337  00000+0  88861-3 0  9992
2 49218  87.8922 122.1584 0001911  99.8949 260.2396 13.13470659124133
ONEWEB-0357             
1 49219U 21083AK  24085.95652507  .00000089  00000+0  18602-3 0  9993
2 49219  87.9136  76.2793 0001986  90.3929 269.7431 13.20770649129464
